[
    {
        "Altitude(m)": 611967.2099346276,
        "Argument of Periapsis(deg)": 0.0,
        "Eccentricity": 0.0,
        "Inclination(deg)": 60.0,
        "Latitude(deg)": 59.14025555277873,
        "Longitude(deg)": 76.09200732076529,
        "Mean Anomaly(deg)": 98.18179999999998,
        "RAAN(deg)": 70.0,
        "Satellite Name": "Test1 314",
        "Satellite Number": 314,
        "Semi-Major Axis(m)": 6980739.136638005,
        "Time(s)": 0
    },
    {
        "Altitude(m)": 611934.4100760914,
        "Argument of Periapsis(deg)": 0.00010418945913296404,
        "Eccentricity": 0.0,
        "Inclination(deg)": 60.0,
        "Latitude(deg)": 58.98661831388559,
        "Longitude(deg)": 77.21525642188392,
        "Mean Anomaly(deg)": 98.80190614546181,
        "RAAN(deg)": 69.99957995086027,
        "Satellite Name": "Test1 314",
        "Satellite Number": 314,
        "Semi-Major Axis(m)": 6980739.136638005,
        "Time(s)": 10
    }
]